# From MPC106342
C/1995 O1 (Hale-Bopp),e,89.1694,282.9811,130.4423,177.5896,0.0004165,0.99496568,0.0000,03/29.7188/1997,2000,g -2.0,4.0
# From NK 1615
P/1996 R2 (Lagerkvist),e,2.6007,40.0126,333.3554,3.774919,0.1343825,0.31440012,146.9792,02/10.0/2022,2000,g 11.5,4.0
# From MPEC 2022-C56
C/1997 J2 (Meunier-Dupouy),h,03/05.4025/1998,91.2683,148.2912,122.6159,1.000233,3.059761,2000,3.5,4.0
# From MPEC 2022-C56
C/1997 T1 (Utsunomiya),h,06/18.2721/2022,51.9572,234.1015,278.3504,1.016749,0.805149,2000,8.0,4.0
# From MPC 75703
P/1998 VS24 (LINEAR),e,5.0265,159.0386,244.6068,4.526937,0.1023287,0.24269710,151.7690,02/10.0/2022,2000,g 13.0,2.0
# From NK 731
P/1999 RO28 (LONEOS),e,7.5668,137.8825,231.2736,3.426679,0.1553796,0.67239811,149.0817,02/10.0/2022,2000,g 20.0,2.0
# From MPC 75704
P/1999 XN120 (Catalina),e,5.0297,285.2961,161.7564,4.178951,0.1153727,0.21026468,196.9645,02/10.0/2022,2000,g 13.5,2.0
# From NK 744
P/2000 R2 (LINEAR),e,11.6870,160.2857,176.5661,3.467247,0.1526606,0.53155697,147.8261,02/10.0/2022,2000,g 18.0,4.0
# From MPC 43019
P/2001 H5 (NEAT),e,8.3673,328.6852,224.8005,6.096814,0.0654711,0.59827224,151.1438,02/10.0/2022,2000,g 12.0,4.0
# From MPC 75704
P/2001 Q6 (NEAT),e,56.9111,22.1751,42.9318,7.955624,0.0439231,0.82316139,327.1211,02/10.0/2022,2000,g 13.5,4.0
# From MPC 47727
P/2002 EJ57 (LINEAR),e,4.9766,330.3205,167.3255,6.467028,0.0599304,0.59229862,79.9114,02/10.0/2022,2000,g 12.5,4.0
# From MPC109588
P/2002 T6 (NEAT-LINEAR),e,10.8440,206.1439,219.6519,7.703238,0.0460993,0.56144868,318.8762,02/10.0/2022,2000,g 10.5,4.0
# From MPC 75007
C/2002 VQ94 (LINEAR),e,70.6522,35.0992,100.0598,184.5511,0.0003931,0.96304332,2.3025,02/10.0/2022,2000,g  9.5,2.0
# From MPC 50354
P/2003 F2 (NEAT),e,11.6085,359.0079,192.2216,6.502646,0.0594386,0.54186099,48.7632,02/10.0/2022,2000,g 16.5,2.0
# From MPC 50139
P/2003 QX29 (NEAT),e,11.3912,264.5418,37.5808,8.021962,0.0433794,0.47283861,304.7811,02/10.0/2022,2000,g  8.5,4.0
# From MPC105235
P/2003 T12 (SOHO),e,11.0215,174.5821,219.7476,2.585768,0.2370389,0.76993823,152.6492,02/10.0/2022,2000,g 17.0,4.0
# From MPC 82312
P/2004 A1 (LONEOS),e,10.5517,124.8544,21.1837,7.966028,0.0438370,0.30956167,280.8878,02/10.0/2022,2000,g  6.5,4.0
# From MPC 54558
P/2004 DO29 (Spacewatch-LINEAR),e,14.5321,147.3734,40.5913,7.290150,0.0500725,0.44112628,317.6770,02/10.0/2022,2000,g 13.5,2.0
# From MPC 54823
P/2004 FY140 (LINEAR),e,2.1348,326.7696,242.2692,4.905062,0.0907272,0.16797579,217.4537,02/10.0/2022,2000,g 12.5,2.0
# From MPC 53304
P/2004 R3 (LINEAR-NEAT),e,12.7850,305.3855,37.8297,4.774904,0.0944620,0.25716395,13.3262,02/10.0/2022,2000,g 14.5,4.0
# From MPC 55521
P/2004 V3 (Siding Spring),e,50.4433,356.1285,322.4198,7.135522,0.0517089,0.44618263,326.3572,02/10.0/2022,2000,g 11.5,4.0
# From MPC 75705
P/2004 V5 (LINEAR-Hill),e,19.3404,47.7898,87.6322,7.983831,0.0436905,0.44401462,272.0299,02/10.0/2022,2000,g  8.0,4.0
# From MPC 54164
P/2005 E1 (Tubbiolo),e,4.2636,335.5704,193.9686,7.045194,0.0527066,0.37528366,328.5892,02/10.0/2022,2000,g 10.0,4.0
# From MPC 54823
P/2005 GF8 (LONEOS),e,1.1839,314.5124,284.5524,5.803505,0.0704966,0.51697587,61.1485,02/10.0/2022,2000,g 11.5,4.0
# From MPC 79019
P/2005 J1 (McNaught),e,31.7507,268.8220,338.9520,3.571139,0.1460474,0.56929642,177.7311,02/10.0/2022,2000,g 16.5,4.0
# From MPC 74246
P/2005 L1 (McNaught),e,7.7382,138.2488,149.7640,3.979219,0.1241673,0.21024074,12.3006,02/10.0/2022,2000,g  9.5,4.0
# From MPC 75706
P/2005 S2 (Skiff),e,3.1357,161.2186,229.2603,8.010452,0.0434729,0.19802103,249.9388,02/10.0/2022,2000,g  7.5,4.0
# From MPC 75706
P/2005 SB216 (LONEOS),e,24.1022,1.1469,83.3084,7.138281,0.0516789,0.46415959,285.7476,02/10.0/2022,2000,g 12.0,2.0
# From MPC 73461
P/2005 T3 (Read),e,6.2235,27.6934,6.7107,7.585995,0.0471721,0.17492770,282.2626,02/10.0/2022,2000,g  9.0,4.0
# From MPC 73461
P/2005 T4 (SWAN),e,160.2433,25.8433,41.7526,9.360677,0.0344146,0.92971772,205.5650,02/10.0/2022,2000,g 15.0,4.0
# From MPC 75706
P/2005 T5 (Broughton),e,21.3705,56.9994,304.6271,7.285572,0.0501197,0.55255736,298.8464,02/10.0/2022,2000,g 11.0,4.0
# From MPC 75706
P/2005 Y2 (McNaught),e,19.0450,94.2634,193.7745,6.355887,0.0615092,0.46898605,29.5149,02/10.0/2022,2000,g  9.0,4.0
# From MPC 56954
P/2006 F4 (Spacewatch),e,12.4441,183.8255,30.7272,3.516161,0.1494861,0.34144484,137.8777,02/10.0/2022,2000,g 15.0,4.0
# From MPC 75707
P/2006 HR30 (Siding Spring),e,31.8413,309.8751,117.3226,7.810309,0.0451546,0.84270180,250.0811,02/10.0/2022,2000,g 11.0,4.0
# From MPC 75707
P/2007 A2 (Christensen),e,26.4872,300.9110,186.7109,6.332612,0.0618486,0.55806754,341.9340,02/10.0/2022,2000,g 13.5,4.0
# From MPC 75707
P/2007 C2 (Catalina),e,8.6176,275.3935,180.1332,6.994251,0.0532834,0.47157842,279.8922,02/10.0/2022,2000,g 10.0,4.0
# From MPC 84315
C/2007 D1 (LINEAR),e,41.5016,171.2294,339.9063,1283,0.0000215,0.99313354,0.0000,06/07.4558/2007,2000,g  3.5,4.0
# From MPC 82314
P/2007 K2 (Gibbs),e,7.6289,188.6373,347.3956,7.270158,0.0502792,0.68297164,270.2514,02/10.0/2022,2000,g 14.0,4.0
# From MPC 60925
P/2007 Q2 (Gilmore),e,10.2026,172.1561,162.8104,5.654687,0.0732979,0.67011048,32.2518,02/10.0/2022,2000,g 16.0,4.0
# From MPC 73462
P/2007 S1 (Zhao),e,5.9638,141.3702,245.3533,3.822273,0.1318930,0.33976962,328.4265,02/10.0/2022,2000,g 13.0,4.0
# From MPC 61994
P/2007 T2 (Kowalski),e,9.7515,3.3764,359.6490,3.046392,0.1853640,0.78557832,240.3331,02/10.0/2022,2000,g 18.5,4.0
# From MPC 75709
P/2008 L2 (Hill),e,25.8671,218.0146,141.2483,6.027346,0.0666062,0.61334027,329.6900,02/10.0/2022,2000,g 12.5,4.0
# From MPC 64114
P/2008 O3 (Boattini),e,32.3038,47.5732,341.1315,8.218344,0.0418338,0.69597433,209.4183,02/10.0/2022,2000,g 13.0,4.0
# From MPC 75710
P/2008 Y3 (McNaught),e,38.7732,262.8280,238.1203,8.047509,0.0431730,0.44556855,207.3083,02/10.0/2022,2000,g  8.5,4.0
# From MPC 75710
P/2009 B1 (Boattini),e,22.2266,297.0824,128.8809,6.737428,0.0563589,0.63523211,269.6891,02/10.0/2022,2000,g 13.0,4.0
# From MPC 66466
C/2009 G1 (STEREO),e,108.6428,120.4893,175.4697,452.7993,0.0001023,0.99748520,0.0000,04/17.1309/2009,2000,g  9.0,4.0
# From MPC 75710
P/2009 O3 (Hill),e,16.2836,183.6904,154.4596,7.767874,0.0455251,0.68785750,211.3669,02/10.0/2022,2000,g 12.5,4.0
# From MPC 68902
P/2009 Q5 (McNaught),e,40.9882,160.2794,209.0609,7.432904,0.0486369,0.60951532,220.6457,02/10.0/2022,2000,g 10.0,4.0
# From MPC112389
P/2009 T2 (La Sagra),e,27.5869,215.8625,216.3469,7.721100,0.0459394,0.76589107,203.3629,02/10.0/2022,2000,g 14.0,4.0
# From MPC105235
P/2009 WX51 (Catalina),e,9.5935,31.6111,118.2048,3.082429,0.1821228,0.73988497,82.0962,02/10.0/2022,2000,g 19.0,2.0
# From MPC 74247
P/2009 Y2 (Kowalski),e,29.9469,262.0320,172.1330,6.550151,0.0587932,0.63638850,256.6925,02/10.0/2022,2000,g 13.0,4.0
# From MPC 75711
P/2010 A3 (Hill),e,14.8219,63.7213,42.2312,6.082252,0.0657064,0.73361510,286.0011,02/10.0/2022,2000,g 14.0,4.0
# From MPC 75008
P/2010 C1 (Scotti),e,9.1282,141.8863,3.5314,7.103809,0.0520556,0.25946406,233.1060,02/10.0/2022,2000,g  9.5,4.0
# From MPC 75008
P/2010 D2 (WISE),e,57.0907,319.8873,119.9800,6.719024,0.0565907,0.45121978,248.1245,02/10.0/2022,2000,g 16.0,4.0
# From MPC 75009
P/2010 E2 (Jarnac),e,15.3881,177.8212,8.3358,8.639870,0.0388100,0.71957641,168.3133,02/10.0/2022,2000,g 14.0,4.0
# From MPC 72851
P/2010 H2 (Vales),e,14.2764,64.1901,128.0429,3.832771,0.1313514,0.19621095,212.2496,02/10.0/2022,2000,g  6.0,4.0
# From MPC 70361
P/2010 H3 (SOHO),e,23.0619,77.0825,26.1628,3.036879,0.1862357,0.98535338,0.0000,02/07.9287/2021,2000,g 20.0,2.0
# From MPC 73463
P/2010 H4 (Scotti),e,2.3180,44.7312,179.4420,6.595908,0.0581825,0.26656573,247.8722,02/10.0/2022,2000,g 10.5,4.0
# From MPC 74637
P/2010 H5 (Scotti),e,14.0593,24.7986,174.9782,7.166699,0.0513719,0.15272828,222.8515,02/10.0/2022,2000,g 13.0,2.0
# From MPC 98558
P/2010 J3 (McMillan),e,13.2767,106.4410,157.5958,8.976735,0.0366460,0.72624712,153.3295,02/10.0/2022,2000,g 11.0,4.0
# From MPC 84315
P/2010 JC81 (WISE),e,38.7915,30.8590,12.4242,8.107625,0.0426937,0.77748394,168.5064,02/10.0/2022,2000,g  9.0,4.0
# From MPC 74248
P/2010 T2 (PANSTARRS),e,7.8879,58.7020,353.0222,5.548253,0.0754171,0.32214194,302.0544,02/10.0/2022,2000,g 11.5,4.0
# From MPC 98558
P/2010 TO20 (LINEAR-Grauer),e,2.4788,43.2887,267.1240,5.832059,0.0699796,0.05541654,339.9362,02/10.0/2022,2000,g  9.0,4.0
# From MPC 82316
P/2010 U1 (Boattini),e,8.2173,280.6932,86.0988,6.505787,0.0593956,0.24886564,260.9236,02/10.0/2022,2000,g  9.5,4.0
# From MPEC 2021-R75
C/2010 U3 (Boattini),e,55.5412,43.0058,88.0412,2459,0.0000081,0.99656562,0.0000,02/25.2057/2019,2000,g  1.0,4.0
# From MPC 79021
P/2010 UH55 (Spacewatch),e,8.0392,232.9194,225.1560,6.654047,0.0574216,0.56346347,227.5094,02/10.0/2022,2000,g 11.0,4.0
# From MPC 75009
P/2010 WK (LINEAR),e,11.4015,11.3314,40.9685,5.762041,0.0712590,0.69025347,296.3920,02/10.0/2022,2000,g 14.5,2.0
# From MPC 84021
P/2011 C2 (Gibbs),e,10.8861,12.1219,160.7179,7.412823,0.0488347,0.26898226,180.7140,02/10.0/2022,2000,g  9.0,4.0
# From MPC 79866
P/2011 FR143 (Lemmon),e,15.9772,190.9500,350.0183,6.861168,0.0548412,0.45052604,219.6240,02/10.0/2022,2000,g 14.0,2.0
# From MPC 82317
P/2011 JB15 (Spacewatch-Boattini),e,19.1475,153.5814,111.0710,7.361610,0.0493452,0.31679205,181.2602,02/10.0/2022,2000,g  9.0,4.0
# From MPC 87913
P/2011 N1 (ASH),e,35.7450,77.5845,330.3542,6.246904,0.0631258,0.54455338,224.2526,02/10.0/2022,2000,g 11.5,4.0
# From MPC 75714
P/2011 NO1 (Elenin),e,15.2460,295.8182,263.7426,5.528048,0.0758309,0.77454440,306.5308,02/10.0/2022,2000,g 15.0,4.0
# From MPC 82318
P/2011 P1 (McNaught),e,5.6610,4.2368,349.0076,7.463237,0.0483407,0.32779702,203.7900,02/10.0/2022,2000,g  9.0,4.0
# From MPC 77806
P/2011 Q3 (McNaught),e,6.0574,32.0258,310.9916,4.972026,0.0889005,0.53292598,343.0745,02/10.0/2022,2000,g 13.5,4.0
# From MPC 98558
P/2011 S1 (Gibbs),e,2.6860,218.8522,192.4411,8.583672,0.0391917,0.20104978,107.3281,02/10.0/2022,2000,g  8.0,4.0
# From MPC 79022
